{"type": "FeatureCollection", "features": [ {"type": "Feature", "properties": {"norad_id": 65304, "name": "DRAGON CRS-33", "group": "stations", "lat": 19.294079558602963, "lon": 108.44386037072341, "alt_km": 415.7042081211757, "timestamp": "2025-12-22T20:43:44.599123+00:00", "meta": {"OBJECT_NAME": "DRAGON CRS-33", "OBJECT_ID": "2025-186A", "EPOCH": "2025-12-22T12:53:01.598784", "MEAN_MOTION": 15.49728746, "ECCENTRICITY": 0.00031539, "INCLINATION": 51.6324, "RA_OF_ASC_NODE": 93.9618, "ARG_OF_PERICENTER": 285.9755, "MEAN_ANOMALY": 74.0886, "EPHEMERIS_TYPE": 0, "CLASSIFICATION_TYPE": "U", "NORAD_CAT_ID": 65304, "ELEMENT_SET_NO": 999, "REV_AT_EPOCH": 11, "BSTAR": 0.00021249665, "MEAN_MOTION_DOT": 0.00011576, "MEAN_MOTION_DDOT": 0}, "tle": {"line1": "1 65304U 25186A   25356.53682406  .00011576  00000+0  21250-3 0  9997", "line2": "2 65304  51.6324  93.9618 0003153 285.9755  74.0886 15.49728746   118"}}, "geometry": {"type": "Point", "coordinates": [108.44386037072341, 19.294079558602963]}}, {"type": "Feature", "properties": {"norad_id": 65586, "name": "PROGRESS-MS 32", "group": "stations", "lat": 19.294080142956524, "lon": 108.44386091093716, "alt_km": 415.70420805730737, "timestamp": "2025-12-22T20:43:44.599135+00:00", "meta": {"OBJECT_NAME": "PROGRESS-MS 32", "OBJECT_ID": "2025-204A", "EPOCH": "2025-12-22T12:53:01.598784", "MEAN_MOTION": 15.49728746, "ECCENTRICITY": 0.00031539, "INCLINATION": 51.6324, "RA_OF_ASC_NODE": 93.9618, "ARG_OF_PERICENTER": 285.9755, "MEAN_ANOMALY": 74.0886, "EPHEMERIS_TYPE": 0, "CLASSIFICATION_TYPE": "U", "NORAD_CAT_ID": 65586, "ELEMENT_SET_NO": 999, "REV_AT_EPOCH": 27, "BSTAR": 0.00021249665, "MEAN_MOTION_DOT": 0.00011576, "MEAN_MOTION_DDOT": 0}, "tle": {"line1": "1 65586U 25204A   25356.53682406  .00011576  00000+0  21250-3 0  9990", "line2": "2 65586  51.6324  93.9618 0003153 285.9755  74.0886 15.49728746   277"}}, "geometry": {"type": "Point", "coordinates": [108.44386091093716, 19.294080142956524]}}, {"type": "Feature", "properties": {"norad_id": 65616, "name": "CYGNUS NG-23", "group": "stations", "lat": 19.294080678614616, "lon": 108.44386140613372, "alt_km": 415.704207998765, "timestamp": "2025-12-22T20:43:44.599146+00:00", "meta": {"OBJECT_NAME": "CYGNUS NG-23", "OBJECT_ID": "2025-208A", "EPOCH": "2025-12-22T12:53:01.598784", "MEAN_MOTION": 15.49728746, "ECCENTRICITY": 0.00031539, "INCLINATION": 51.6324, "RA_OF_ASC_NODE": 93.9618, "ARG_OF_PERICENTER": 285.9755, "MEAN_ANOMALY": 74.0886, "EPHEMERIS_TYPE": 0, "CLASSIFICATION_TYPE": "U", "NORAD_CAT_ID": 65616, "ELEMENT_SET_NO": 999, "REV_AT_EPOCH": 22, "BSTAR": 0.00021249665, "MEAN_MOTION_DOT": 0.00011576, "MEAN_MOTION_DDOT": 0}, "tle": {"line1": "1 65616U 25208A   25356.53682406  .00011576  00000+0  21250-3 0  9998", "line2": "2 65616  51.6324  93.9618 0003153 285.9755  74.0886 15.49728746   226"}}, "geometry": {"type": "Point", "coordinates": [108.44386140613372, 19.294080678614616]}}, {"type": "Feature", "properties": {"norad_id": 65729, "name": "DRAGONFLY", "group": "stations", "lat": 17.017757102618788, "lon": -110.2454712416134, "alt_km": 347.2342053122984, "timestamp": "2025-12-22T20:43:44.599156+00:00", "meta": {"OBJECT_NAME": "DRAGONFLY", "OBJECT_ID": "1998-067XH", "EPOCH": "2025-12-22T12:26:54.476448", "MEAN_MOTION": 15.75175464, "ECCENTRICITY": 0.00077918, "INCLINATION": 51.6245, "RA_OF_ASC_NODE": 85.5681, "ARG_OF_PERICENTER": 337.4255, "MEAN_ANOMALY": 22.6401, "EPHEMERIS_TYPE": 0, "CLASSIFICATION_TYPE": "U", "NORAD_CAT_ID": 65729, "ELEMENT_SET_NO": 999, "REV_AT_EPOCH": 1470, "BSTAR": 0.001313189, "MEAN_MOTION_DOT": 0.00205699, "MEAN_MOTION_DDOT": 0}, "tle": {"line1": "1 65729U 98067XH  25356.51868607  .00205699  00000+0  13132-2 0  9993", "line2": "2 65729  51.6245  85.5681 0007791 337.4255  22.6401 15.75175464 14702"}}, "geometry": {"type": "Point", "coordinates": [-110.2454712416134, 17.017757102618788]}}, {"type": "Feature", "properties": {"norad_id": 65731, "name": "1998-067XK", "group": "stations", "lat": -47.550631207330035, "lon": 25.774248038774484, "alt_km": 367.05816810291253, "timestamp": "2025-12-22T20:43:44.599201+00:00", "meta": {"OBJECT_NAME": "1998-067XK", "OBJECT_ID": "1998-067XK", "EPOCH": "2025-12-22T11:50:52.395936", "MEAN_MOTION": 15.67550975, "ECCENTRICITY": 0.00048767, "INCLINATION": 51.6296, "RA_OF_ASC_NODE": 87.6784, "ARG_OF_PERICENTER": 307.2802, "MEAN_ANOMALY": 52.7749, "EPHEMERIS_TYPE": 0, "CLASSIFICATION_TYPE": "U", "NORAD_CAT_ID": 65731, "ELEMENT_SET_NO": 999, "REV_AT_EPOCH": 1467, "BSTAR": 0.00098825287, "MEAN_MOTION_DOT": 0.00110692, "MEAN_MOTION_DDOT": 0}, "tle": {"line1": "1 65731U 98067XK  25356.49366199  .00110692  00000+0  98825-3 0  9993", "line2": "2 65731  51.6296  87.6784 0004876 307.2802  52.7749 15.67550975 14672"}}, "geometry": {"type": "Point", "coordinates": [25.774248038774484, -47.550631207330035]}}, {"type": "Feature", "properties": {"norad_id": 65732, "name": "RSP-03", "group": "stations", "lat": 14.655684814425241, "lon": 96.80585640513864, "alt_km": 352.52429627846413, "timestamp": "2025-12-22T20:43:44.599220+00:00", "meta": {"OBJECT_NAME": "RSP-03", "OBJECT_ID": "1998-067XL", "EPOCH": "2025-12-22T13:00:59.275008", "MEAN_MOTION": 15.71055335, "ECCENTRICITY": 0.00058331, "INCLINATION": 51.6262, "RA_OF_ASC_NODE": 86.4899, "ARG_OF_PERICENTER": 314.1528, "MEAN_ANOMALY": 45.8989, "EPHEMERIS_TYPE": 0, "CLASSIFICATION_TYPE": "U", "NORAD_CAT_ID": 65732, "ELEMENT_SET_NO": 999, "REV_AT_EPOCH": 1470, "BSTAR": 0.0011094477, "MEAN_MOTION_DOT": 0.00144397, "MEAN_MOTION_DDOT": 0}, "tle": {"line1": "1 65732U 98067XL  25356.54235272  .00144397  00000+0  11094-2 0  9998", "line2": "2 65732  51.6262  86.4899 0005833 314.1528  45.8989 15.71055335 14704"}}, "geometry": {"type": "Point", "coordinates": [96.80585640513864, 14.655684814425241]}}, {"type": "Feature", "properties": {"norad_id": 65733, "name": "GHS-01", "group": "stations", "lat": -13.088130795445478, "lon": -86.41606173597476, "alt_km": 339.62467249099063, "timestamp": "2025-12-22T20:43:44.599235+00:00", "meta": {"OBJECT_NAME": "GHS-01", "OBJECT_ID": "1998-067XM", "EPOCH": "2025-12-22T12:18:19.985184", "MEAN_MOTION": 15.79083462, "ECCENTRICITY": 0.00088517, "INCLINATION": 51.6292, "RA_OF_ASC_NODE": 84.7862, "ARG_OF_PERICENTER": 340.8891, "MEAN_ANOMALY": 19.1777, "EPHEMERIS_TYPE": 0, "CLASSIFICATION_TYPE": "U", "NORAD_CAT_ID": 65733, "ELEMENT_SET_NO": 999, "REV_AT_EPOCH": 1472, "BSTAR": 0.0014795008, "MEAN_MOTION_DOT": 0.00278334, "MEAN_MOTION_DDOT": 0}, "tle": {"line1": "1 65733U 98067XM  25356.51273131  .00278334  00000+0  14795-2 0  9992", "line2": "2 65733  51.6292  84.7862 0008851 340.8891  19.1777 15.79083462 14722"}}, "geometry": {"type": "Point", "coordinates": [-86.41606173597476, -13.088130795445478]}}, {"type": "Feature", "properties": {"norad_id": 65941, "name": "YOTSUBA-KULOVER", "group": "stations", "lat": 7.022800018038127, "lon": -96.55836279071903, "alt_km": 386.6437892550048, "timestamp": "2025-12-22T20:43:44.599246+00:00", "meta": {"OBJECT_NAME": "YOTSUBA-KULOVER", "OBJECT_ID": "1998-067XN", "EPOCH": "2025-12-22T12:18:58.548960", "MEAN_MOTION": 15.60714996, "ECCENTRICITY": 0.00021092, "INCLINATION": 51.6295, "RA_OF_ASC_NODE": 90.8089, "ARG_OF_PERICENTER": 341.8055, "MEAN_ANOMALY": 18.2862, "EPHEMERIS_TYPE": 0, "CLASSIFICATION_TYPE": "U", "NORAD_CAT_ID": 65941, "ELEMENT_SET_NO": 999, "REV_AT_EPOCH": 1138, "BSTAR": 0.00080270144, "MEAN_MOTION_DOT": 0.00068061, "MEAN_MOTION_DDOT": 0}, "tle": {"line1": "1 65941U 98067XN  25356.51317765  .00068061  00000+0  80270-3 0  9991", "line2": "2 65941  51.6295  90.8089 0002109 341.8055  18.2862 15.60714996 11385"}}, "geometry": {"type": "Point", "coordinates": [-96.55836279071903, 7.022800018038127]}}, {"type": "Feature", "properties": {"norad_id": 65942, "name": "BOTAN", "group": "stations", "lat": -50.88985384857318, "lon": 10.997390798998563, "alt_km": 376.44949389746307, "timestamp": "2025-12-22T20:43:44.599257+00:00", "meta": {"OBJECT_NAME": "BOTAN", "OBJECT_ID": "1998-067XP", "EPOCH": "2025-12-22T07:17:02.509728", "MEAN_MOTION": 15.64805517, "ECCENTRICITY": 0.00031122, "INCLINATION": 51.6283, "RA_OF_ASC_NODE": 90.9078, "ARG_OF_PERICENTER": 318.7343, "MEAN_ANOMALY": 41.3416, "EPHEMERIS_TYPE": 0, "CLASSIFICATION_TYPE": "U", "NORAD_CAT_ID": 65942, "ELEMENT_SET_NO": 999, "REV_AT_EPOCH": 1136, "BSTAR": 0.0012003898, "MEAN_MOTION_DOT": 0.0012058, "MEAN_MOTION_DDOT": 0}, "tle": {"line1": "1 65942U 98067XP  25356.30350127  .00120580  00000+0  12004-2 0  9992", "line2": "2 65942  51.6283  90.9078 0003112 318.7343  41.3416 15.64805517 11364"}}, "geometry": {"type": "Point", "coordinates": [10.997390798998563, -50.88985384857318]}}, {"type": "Feature", "properties": {"norad_id": 65943, "name": "E-KAGAKU-1", "group": "stations", "lat": 7.495858817487008, "lon": -96.93304269427779, "alt_km": 385.6676063932691, "timestamp": "2025-12-22T20:43:44.599267+00:00", "meta": {"OBJECT_NAME": "E-KAGAKU-1", "OBJECT_ID": "1998-067XQ", "EPOCH": "2025-12-22T10:46:55.533504", "MEAN_MOTION": 15.60710313, "ECCENTRICITY": 0.00012968, "INCLINATION": 51.6319, "RA_OF_ASC_NODE": 91.1385, "ARG_OF_PERICENTER": 295.9007, "MEAN_ANOMALY": 64.1852, "EPHEMERIS_TYPE": 0, "CLASSIFICATION_TYPE": "U", "NORAD_CAT_ID": 65943, "ELEMENT_SET_NO": 999, "REV_AT_EPOCH": 1137, "BSTAR": 0.00086344374, "MEAN_MOTION_DOT": 0.00073283, "MEAN_MOTION_DDOT": 0}, "tle": {"line1": "1 65943U 98067XQ  25356.44925386  .00073283  00000+0  86344-3 0  9999", "line2": "2 65943  51.6319  91.1385 0001296 295.9007  64.1852 15.60710313 11376"}}, "geometry": {"type": "Point", "coordinates": [-96.93304269427779, 7.495858817487008]}}]}